{
  "norad_id": 57156,
  "name": "STARLINK-6137",
  "history": [
    {
      "epoch": "2026-03-28T22:00:01.999584Z",
      "apogee_km": 486.66728565498033,
      "perigee_km": 484.72207575666835,
      "latitude_deg": -33.471031111824246,
      "longitude_deg": -46.280095483372065,
      "height_km": 494.4156903576078,
      "semi_major_axis_km": 6863.8316807058245,
      "eccentricity": 0.0001417,
      "inclination_deg": 43.0015,
      "raan_deg": 154.8927,
      "arg_perigee_deg": 259.4934,
      "mean_anomaly_deg": 46.8946,
      "mean_motion_rev_day": 15.26696903
    },
    {
      "epoch": "2026-03-29T04:00:01.999584Z",
      "apogee_km": 486.75834434971966,
      "perigee_km": 484.6387919262788,
      "latitude_deg": -37.21050829442248,
      "longitude_deg": 140.9721064824472,
      "height_km": 495.59183557388883,
      "semi_major_axis_km": 6863.835568137999,
      "eccentricity": 0.0001544,
      "inclination_deg": 43.0009,
      "raan_deg": 153.4841,
      "arg_perigee_deg": 260.2136,
      "mean_anomaly_deg": 341.8213,
      "mean_motion_rev_day": 15.26695606
    },
    {
      "epoch": "2026-03-30T04:00:01.999584Z",
      "apogee_km": 486.6691934152823,
      "perigee_km": 484.55886452391496,
      "latitude_deg": -10.444238283807731,
      "longitude_deg": -111.06097730094172,
      "height_km": 486.9994328463886,
      "semi_major_axis_km": 6863.751028969598,
      "eccentricity": 0.00015373,
      "inclination_deg": 43.0009,
      "raan_deg": 147.8464,
      "arg_perigee_deg": 273.0341,
      "mean_anomaly_deg": 71.7075,
      "mean_motion_rev_day": 15.26723812
    },
    {
      "epoch": "2026-03-30T14:00:03.000384Z",
      "apogee_km": 486.85794589086345,
      "perigee_km": 484.4800489411182,
      "latitude_deg": 37.328230270036336,
      "longitude_deg": -126.89839568839312,
      "height_km": 488.7290865579036,
      "semi_major_axis_km": 6863.8059974159905,
      "eccentricity": 0.00017322,
      "inclination_deg": 43.001,
      "raan_deg": 145.4986,
      "arg_perigee_deg": 282.047,
      "mean_anomaly_deg": 195.5552,
      "mean_motion_rev_day": 15.26705472
    },
    {
      "epoch": "2026-03-30T22:00:00.999936Z",
      "apogee_km": 486.829073369704,
      "perigee_km": 484.26960473387317,
      "latitude_deg": 18.928252336971187,
      "longitude_deg": 143.8595519743328,
      "height_km": 485.44349951961584,
      "semi_major_axis_km": 6863.686339051788,
      "eccentricity": 0.00018645,
      "inclination_deg": 43.0012,
      "raan_deg": 143.6158,
      "arg_perigee_deg": 271.1633,
      "mean_anomaly_deg": 240.5437,
      "mean_motion_rev_day": 15.26745396
    },
    {
      "epoch": "2026-03-31T20:00:01.999008Z",
      "apogee_km": 486.8174045537953,
      "perigee_km": 484.25039163790825,
      "latitude_deg": 16.2000662921036,
      "longitude_deg": 171.18384625217112,
      "height_km": 485.3257059102236,
      "semi_major_axis_km": 6863.670898095852,
      "eccentricity": 0.000187,
      "inclination_deg": 43.001,
      "raan_deg": 138.4457,
      "arg_perigee_deg": 278.1491,
      "mean_anomaly_deg": 237.7848,
      "mean_motion_rev_day": 15.26750548
    },
    {
      "epoch": "2026-04-01T04:44:29.367168Z",
      "apogee_km": 486.689569452833,
      "perigee_km": 484.4153545864883,
      "latitude_deg": -6.232508603383621e-06,
      "longitude_deg": -124.29580851756512,
      "height_km": 485.180753742476,
      "semi_major_axis_km": 6863.689462019661,
      "eccentricity": 0.00016567,
      "inclination_deg": 43.0026,
      "raan_deg": 136.3906,
      "arg_perigee_deg": 277.5294,
      "mean_anomaly_deg": 82.5369,
      "mean_motion_rev_day": 15.26744354
    },
    {
      "epoch": "2026-04-02T09:00:14.129856Z",
      "apogee_km": 486.63514611198843,
      "perigee_km": 484.4589464482742,
      "latitude_deg": 5.146965494167694e-05,
      "longitude_deg": 163.96594613893043,
      "height_km": 485.23668654112254,
      "semi_major_axis_km": 6863.684046280131,
      "eccentricity": 0.00015853,
      "inclination_deg": 43.0033,
      "raan_deg": 129.7495,
      "arg_perigee_deg": 274.6212,
      "mean_anomaly_deg": 85.4459,
      "mean_motion_rev_day": 15.26746161
    },
    {
      "epoch": "2026-04-03T10:07:33.325536Z",
      "apogee_km": 486.6107901881942,
      "perigee_km": 484.46506813183987,
      "latitude_deg": 5.478999417213091e-06,
      "longitude_deg": 140.20019167271383,
      "height_km": 485.21894076791443,
      "semi_major_axis_km": 6863.674929160017,
      "eccentricity": 0.00015631,
      "inclination_deg": 43.003,
      "raan_deg": 123.8455,
      "arg_perigee_deg": 275.147,
      "mean_anomaly_deg": 84.9203,
      "mean_motion_rev_day": 15.26749203
    },
    {
      "epoch": "2026-04-04T09:40:41.071296Z",
      "apogee_km": 486.6602973053523,
      "perigee_km": 484.5061873445011,
      "latitude_deg": 1.6581212648689194e-05,
      "longitude_deg": 140.415676589134,
      "height_km": 485.30022245108694,
      "semi_major_axis_km": 6863.720242324926,
      "eccentricity": 0.00015692,
      "inclination_deg": 43.0016,
      "raan_deg": 118.3105,
      "arg_perigee_deg": 273.2002,
      "mean_anomaly_deg": 86.867,
      "mean_motion_rev_day": 15.26734084
    },
    {
      "epoch": "2026-04-05T02:56:58.497792Z",
      "apogee_km": 486.74119884832453,
      "perigee_km": 484.41824256136897,
      "latitude_deg": 4.015479554539313e-05,
      "longitude_deg": -123.42512506428938,
      "height_km": 485.3585033647969,
      "semi_major_axis_km": 6863.716720704846,
      "eccentricity": 0.00016922,
      "inclination_deg": 43.0028,
      "raan_deg": 114.2516,
      "arg_perigee_deg": 269.9283,
      "mean_anomaly_deg": 90.1375,
      "mean_motion_rev_day": 15.26735259
    },
    {
      "epoch": "2026-04-06T07:12:43.191360Z",
      "apogee_km": 486.55581148697456,
      "perigee_km": 484.58153518709605,
      "latitude_deg": 6.133709410387121e-06,
      "longitude_deg": 164.83671700506207,
      "height_km": 485.41006038793137,
      "semi_major_axis_km": 6863.7056733370355,
      "eccentricity": 0.00014382,
      "inclination_deg": 43.0046,
      "raan_deg": 107.6104,
      "arg_perigee_deg": 266.2786,
      "mean_anomaly_deg": 93.7901,
      "mean_motion_rev_day": 15.26738945
    },
    {
      "epoch": "2026-04-07T06:45:50.620032Z",
      "apogee_km": 486.93597725532527,
      "perigee_km": 484.1947518049792,
      "latitude_deg": -3.124876276779039e-07,
      "longitude_deg": 165.05790589056863,
      "height_km": 485.0452060476541,
      "semi_major_axis_km": 6863.7023645301515,
      "eccentricity": 0.00019969,
      "inclination_deg": 43.0076,
      "raan_deg": 102.0798,
      "arg_perigee_deg": 282.569,
      "mean_anomaly_deg": 77.4938,
      "mean_motion_rev_day": 15.26740049
    },
    {
      "epoch": "2026-04-08T09:27:23.048064Z",
      "apogee_km": 486.5455990147984,
      "perigee_km": 484.57407073594914,
      "latitude_deg": -1.0595107375038264e-05,
      "longitude_deg": 117.29865930636674,
      "height_km": 485.4029090858645,
      "semi_major_axis_km": 6863.6968348753735,
      "eccentricity": 0.00014362,
      "inclination_deg": 43.0042,
      "raan_deg": 95.8019,
      "arg_perigee_deg": 266.1725,
      "mean_anomaly_deg": 93.8962,
      "mean_motion_rev_day": 15.26741894
    },
    {
      "epoch": "2026-04-09T01:09:27.630144Z",
      "apogee_km": 486.54777915856357,
      "perigee_km": 484.5833874792179,
      "latitude_deg": 2.956454791034885e-05,
      "longitude_deg": -122.55492024498288,
      "height_km": 485.38901590806404,
      "semi_major_axis_km": 6863.70258331889,
      "eccentricity": 0.0001431,
      "inclination_deg": 43.0048,
      "raan_deg": 92.1122,
      "arg_perigee_deg": 267.3099,
      "mean_anomaly_deg": 92.7589,
      "mean_motion_rev_day": 15.26739976
    },
    {
      "epoch": "2026-04-10T06:59:24.923616Z",
      "apogee_km": 486.61263271070493,
      "perigee_km": 484.49463505490166,
      "latitude_deg": 2.0719353286047568e-05,
      "longitude_deg": 141.72096347220634,
      "height_km": 485.2879400854733,
      "semi_major_axis_km": 6863.690633882803,
      "eccentricity": 0.00015429,
      "inclination_deg": 43.0049,
      "raan_deg": 85.102,
      "arg_perigee_deg": 272.3349,
      "mean_anomaly_deg": 87.7326,
      "mean_motion_rev_day": 15.26743963
    },
    {
      "epoch": "2026-04-11T04:58:18.967008Z",
      "apogee_km": 486.56086022587897,
      "perigee_km": 484.4015659360448,
      "latitude_deg": 1.0515279907631555e-05,
      "longitude_deg": 165.92671431167358,
      "height_km": 485.5029523893394,
      "semi_major_axis_km": 6863.618213080962,
      "eccentricity": 0.0001573,
      "inclination_deg": 43.0052,
      "raan_deg": 79.9357,
      "arg_perigee_deg": 256.9217,
      "mean_anomaly_deg": 103.1459,
      "mean_motion_rev_day": 15.26768127
    },
    {
      "epoch": "2026-04-13T05:38:46.850208Z",
      "apogee_km": 486.55485670631333,
      "perigee_km": 484.6040512157688,
      "latitude_deg": 3.452376993963027e-06,
      "longitude_deg": 142.37213810556395,
      "height_km": 485.6468344237886,
      "semi_major_axis_km": 6863.71645396104,
      "eccentricity": 0.00014211,
      "inclination_deg": 43.0058,
      "raan_deg": 68.4963,
      "arg_perigee_deg": 252.7021,
      "mean_anomaly_deg": 107.3675,
      "mean_motion_rev_day": 15.26735348
    },
    {
      "epoch": "2026-04-14T20:53:58.765056Z",
      "apogee_km": 486.6208315283875,
      "perigee_km": 484.51779191447713,
      "latitude_deg": -1.088434109042001e-06,
      "longitude_deg": -97.26328631750259,
      "height_km": 485.3947634384853,
      "semi_major_axis_km": 6863.706311721432,
      "eccentricity": 0.0001532,
      "inclination_deg": 43.006,
      "raan_deg": 59.2726,
      "arg_perigee_deg": 267.3892,
      "mean_anomaly_deg": 92.6784,
      "mean_motion_rev_day": 15.26738732
    }
  ]
}